CUBESAT XI-V            
1 28895U 05043F   22306.33158907  .00001585  00000+0  30663-3 0  9992
2 28895  98.1256  75.7541 0017613  69.2058 291.1030 14.64616914907590
CUTE-1.7+APD II (CO-65) 
1 32785U 08021C   22306.85523307  .00003839  00000+0  40158-3 0  9995
2 32785  97.6760 273.4873 0013865 129.6814 230.5629 14.90145013787164
AAUSAT-II               
1 32788U 08021F   22306.37435181  .00008382  00000+0  69930-3 0  9994
2 32788  97.5501 287.0039 0012399  32.1835 328.0143 14.98759979789083
DELFI-C3 (DO-64)        
1 32789U 08021G   22306.49891229  .00022429  00000+0  11221-2 0  9994
2 32789  97.3304 328.0331 0009102 190.5111 169.5934 15.17391129792832
SEEDS II (CO-66)        
1 32791U 08021J   22306.64001229  .00003852  00000+0  37067-3 0  9993
2 32791  97.6275 278.6291 0014401  88.3609 271.9261 14.93477847787890
SWISSCUBE               
1 35932U 09051B   22307.10393925  .00001137  00000+0  26347-3 0  9999
2 35932  98.5485 166.8025 0007450 350.9598   9.1464 14.57049128696327
BEESAT-1                
1 35933U 09051C   22306.85238755  .00000944  00000+0  22049-3 0  9990
2 35933  98.5420 168.0731 0005912   6.7551 353.3725 14.57041704696327
ITUPSAT1                
1 35935U 09051E   22307.16111423  .00000901  00000+0  21509-3 0  9992
2 35935  98.5520 168.4080 0008251   6.3502 353.7798 14.56138384696090
TISAT 1                 
1 36799U 10035E   22307.10030384  .00004613  00000+0  44232-3 0  9997
2 36799  98.1644 162.9532 0011992   7.5309 352.6087 14.93598234668652
M-CUBED & EXP-1 PRIME   
1 37855U 11061F   22307.12648627  .00014726  00000+0  60256-3 0  9998
2 37855 101.7194 140.0751 0145584   5.9853 354.3061 15.15303827602687
AEROCUBE 4.5A           
1 38767U 12048K   22306.69170526  .00011310  00000+0  77190-3 0  9997
2 38767  64.6670  36.4165 0164782 224.7285 134.0445 14.96118784171453
AEROCUBE 4.5B           
1 38768U 12048L   22307.18215049  .00013430  00000+0  82379-3 0  9993
2 38768  64.6673 346.0993 0148927 220.0657 138.9401 15.01540077171963
STRAND-1                
1 39090U 13009E   22306.81502385  .00000383  00000+0  14820-3 0  9990
2 39090  98.3956 141.3091 0008281 213.7270 146.3389 14.35357687507244
BRITE-AUSTRIA           
1 39091U 13009F   22306.80214915  .00000211  00000+0  88331-4 0  9998
2 39091  98.3977 140.4872 0009623 221.6072 138.4383 14.35321361507273
SOMP                    
1 39134U 13015E   22307.16997345  .00030488  00000+0  93384-3 0  9990
2 39134  64.8603 325.3490 0032633 261.9135  97.8296 15.33164280528468
BEESAT-3                
1 39135U 13015F   22306.41984563  .00021823  00000+0  80468-3 0  9998
2 39135  64.8665   7.5161 0037867 264.0183  95.6631 15.27138551527151
BEESAT-2                
1 39136U 13015G   22306.43341776  .00018445  00000+0  71698-3 0  9995
2 39136  64.8761  16.5162 0024173 292.0211  67.8352 15.25871858526948
NEE-01 PEGASO           
1 39151U 13018B   22307.20974290  .00002528  00000+0  32996-3 0  9997
2 39151  97.9989  52.4808 0017138 161.5426 198.6412 14.81324022514226
ESTCUBE 1               
1 39161U 13021C   22307.12863323  .00001466  00000+0  23442-3 0  9993
2 39161  97.8978  20.7024 0009331 344.7959  15.2987 14.73238167509886
POPACS 1                
1 39268U 13055D   22306.44310484  .00034417  00000+0  83901-3 0  9995
2 39268  80.9927  90.5975 0552339 142.4370 221.6795 14.55366765473338
POPACS 2                
1 39269U 13055E   22307.01434911  .00011148  00000+0  30394-3 0  9996
2 39269  81.0106 151.1605 0635316 299.4262  54.4944 14.35606530471267
POPACS 3                
1 39270U 13055F   22307.07872338  .00011549  00000+0  34507-3 0  9998
2 39270  81.0149 186.5047 0683529  39.3623 325.5222 14.23412803469048
ZACUBE-1 (TSHEPISOSAT)  
1 39417U 13066B   22307.13096104  .00004105  00000+0  49891-3 0  9991
2 39417  97.6549 272.5319 0055825 311.1626  48.4780 14.82918588483673
WNISAT-1                
1 39423U 13066H   22307.20994835  .00000753  00000+0  15608-3 0  9998
2 39423  97.7299 178.3200 0175279  64.3428 297.5745 14.53633949474602
TRITON-1                
1 39427U 13066M   22307.07119369  .00001920  00000+0  30345-3 0  9990
2 39427  97.8210 236.9057 0110862 180.7346 179.3716 14.69399507479325
DELFI-N3XT              
1 39428U 13066N   22307.09615264  .00003396  00000+0  52018-3 0  9998
2 39428  97.8202 235.5754 0115223 193.6485 166.1599 14.69908541479078
GOMX-1                  
1 39430U 13066Q   22307.20440949  .00002695  00000+0  48451-3 0  9997
2 39430  97.7964 206.4100 0147905 327.8619  31.3648 14.60560859476543
CUBEBUG-2 (LO-74)       
1 39440U 13066AA  22307.11257426  .00003700  00000+0  49960-3 0  9998
2 39440  97.7432 258.9849 0079319  42.5112 318.2204 14.77482875481953
NEE-02 KRYSAOR          
1 39441U 13066AB  22306.42534928  .00002439  00000+0  34207-3 0  9993
2 39441  97.7542 255.4221 0081576  58.9841 301.9348 14.76076748480381
FUNCUBE-1 (AO-73)       
1 39444U 13066AE  22306.70515843  .00004407  00000+0  52043-3 0  9997
2 39444  97.6423 274.5547 0054256 299.6271  59.9545 14.84124000482026
UWE-3                   
1 39446U 13066AG  22307.16439440  .00004324  00000+0  55493-3 0  9998
2 39446  97.7039 265.3924 0068031 358.5295   1.5707 14.80093077481562
AEROCUBE 5A             
1 39465U 13072D   22307.12828589  .00079211  00000+0  33505-2 0  9994
2 39465 120.4821 114.5022 0172272  64.3558 297.5200 15.10149191170458
AEROCUBE 5B             
1 39466U 13072E   22306.81504301  .00603550  00000+0  70973-2 0  9992
2 39466 120.4451 222.6262 0088286  85.9122 275.2053 15.54640108171915
BRITE-CA1 (TORONTO)     
1 40020U 14033L   22307.00391468  .00001497  00000+0  25950-3 0  9996
2 40020  97.7962  99.0762 0086523 180.7910 179.3173 14.67237372448088
DUCHIFAT-1              
1 40021U 14033M   22306.64449382  .00006159  00000+0  58390-3 0  9999
2 40021  98.0285 259.5372 0010764 311.6913  48.3384 14.93908488455329
NANOSATC-BR1            
1 40024U 14033Q   22306.49419567  .00005021  00000+0  49338-3 0  9996
2 40024  97.9991 251.9953 0010495 319.8049  40.2393 14.92580698454560
QB50P1                  
1 40025U 14033R   22306.65918183  .00004978  00000+0  50612-3 0  9990
2 40025  97.9708 245.2463 0011042 330.3741  29.6850 14.91203985454351
QB50P2                  
1 40032U 14033Y   22306.53830315  .00003934  00000+0  40757-3 0  9995
2 40032  97.9451 239.9614 0010566 328.1131  31.9446 14.90577386454186
PERSEUS-M2              
1 40037U 14033AD  22306.50199440  .00001768  00000+0  20151-3 0  9993
2 40037  97.8972 227.9510 0013963 351.5003   8.5974 14.87378231453642
PERSEUS-M1              
1 40039U 14033AF  22306.53333030  .00001746  00000+0  20094-3 0  9995
2 40039  97.8857 225.4799 0013811 350.7609   9.3351 14.86978888453521
POLYITAN-1              
1 40042U 14033AJ  22306.39770151  .00005987  00000+0  60464-3 0  9998
2 40042  97.9817 246.3751 0012907 321.9476  38.0829 14.91379063454200
TIGRISAT                
1 40043U 14033AK  22307.01168197  .00001663  00000+0  24544-3 0  9996
2 40043  97.6558 128.8405 0060188  67.9533 292.8055 14.75324098450358
AEROCUBE 6A             
1 40045U 14033AM  22306.78290898  .00002142  00000+0  30453-3 0  9994
2 40045  97.6590 137.7997 0057688  55.7177 304.9477 14.76727732450199
AEROCUBE 6B             
1 40046U 14033AN  22307.05879050  .00003181  00000+0  44346-3 0  9999
2 40046  97.6514 136.4731 0056406  52.9259 307.7090 14.77292371450622
UKUBE-1                 
1 40074U 14037F   22307.16458411  .00003483  00000+0  40562-3 0  9991
2 40074  98.3633 194.9811 0003764 181.9737 178.1471 14.85970196450668
BRITE-PL2 (HEWELIUSZ)   
1 40119U 14049B   22306.51912496  .00001930  00000+0  22963-3 0  9990
2 40119  97.8846  40.7513 0017827 146.9729 213.2603 14.85437074444509
FIREBIRD 4              
1 40378U 15003C   22307.18930142  .00039036  00000+0  10019-2 0  9996
2 40378  99.0793 203.6382 0086996 273.3383  85.7907 15.35362981429679
GRIFEX                  
1 40379U 15003D   22307.14415654  .00022975  00000+0  74774-3 0  9992
2 40379  99.0895 187.7999 0107616 321.8212  37.5432 15.26375776428765
CP10 (EXOCUBE)          
1 40380U 15003E   22306.86213497  .00017922  00000+0  64911-3 0  9991
2 40380  99.1003 179.5311 0118160 349.4032  10.4710 15.22042504428190
TIANWANG 1A (TW-1A)     
1 40928U 15051D   22307.11717856  .00173733  00000+0  99760-3 0  9992
2 40928  97.0220 329.7675 0004970 181.6497 250.8897 15.78265712399947
EXACTVIEW 9             
1 40936U 15052G   22305.56400373  .00002531  00000+0  25858-3 0  9996
2 40936   6.0034 274.8124 0010849 297.6440  62.2587 14.77442077383523
AEROCUBE 5C             
1 40965U 15058B   22306.41710775  .00003364  00000+0  39641-3 0  9999
2 40965  64.7805  32.6007 0174537 154.3342 206.6558 14.76140021169322
AEROCUBE 7              
1 40966U 15058C   22306.42723111  .00004092  00000+0  47295-3 0  9992
2 40966  64.7804  29.3747 0172185 153.9317 207.0589 14.76823419169339
ATHENOXAT 1             
1 41168U 15077C   22305.79062112  .00070016  00000+0  26386-2 0  9990
2 41168  14.9827 149.8463 0009190  24.0824  66.5185 15.25235385381278
GALASSIA                
1 41170U 15077E   22305.26728412  .00019182  00000+0  74675-3 0  9999
2 41170  14.9866 146.2006 0010526  34.1454 325.9544 15.23394757381250
VELOX-II                
1 41171U 15077F   22307.08310705  .00015944  00000+0  72284-3 0  9990
2 41171  14.9902 213.7029 0007367 247.1675 112.7868 15.18063255380752
HORYU-4                 
1 41340U 16012D   22307.04071427  .00006021  00000+0  41548-3 0  9994
2 41340  31.0035 193.5251 0012420 141.9944 218.1571 15.04282893368603
E-ST@R-II               
1 41459U 16025D   22307.12950261  .00026666  00000+0  10560-2 0  9996
2 41459  98.1953 122.9773 0136709 157.6013 203.1210 15.17096112358491
AAUSAT 4                
1 41460U 16025E   22307.09899314  .00041227  00000+0  13536-2 0  9991
2 41460  98.1810 130.5870 0111829 128.7135 353.1022 15.25540550359024
